{
  "type": "FeatureCollection",
  "features": [
    {
      "type": "Feature",
      "geometry": {
        "type": "LineString",
        "coordinates": [
          [
            122.09507,
            11.81427
          ],
          [
            122.75755,
            11.46919
          ]
        ]
      },
      "properties": {
        "line_id": "L_Nabas_Panitan_138",
        "from_bus": "Nabas",
        "to_bus": "Panitan",
        "voltage_kv": 138,
        "length_km": 81.718,
        "r_ohm_per_km": 0.123781,
        "x_ohm_per_km": 0.17578,
        "c_nf_per_km": 0.0,
        "max_i_ka": 0.5774,
        "is_submarine": false,
        "cable_type": "overhead",
        "parallel": 2,
        "loading_percent": 20.05,
        "p_from_mw": -48.47,
        "i_from_ka": 0.23154
      }
    },
    {
      "type": "Feature",
      "geometry": {
        "type": "LineString",
        "coordinates": [
          [
            122.75755,
            11.46919
          ],
          [
            122.6308302,
            11.02453374
          ]
        ]
      },
      "properties": {
        "line_id": "L_Panitan_Dingle_138",
        "from_bus": "Panitan",
        "to_bus": "Dingle",
        "voltage_kv": 138,
        "length_km": 51.339,
        "r_ohm_per_km": 0.129461,
        "x_ohm_per_km": 0.183847,
        "c_nf_per_km": 0.0,
        "max_i_ka": 0.5774,
        "is_submarine": false,
        "cable_type": "overhead",
        "parallel": 2,
        "loading_percent": 35.25,
        "p_from_mw": -92.124,
        "i_from_ka": 0.40708
      }
    },
    {
      "type": "Feature",
      "geometry": {
        "type": "LineString",
        "coordinates": [
          [
            122.6308302,
            11.02453374
          ],
          [
            122.5588103,
            10.83480342
          ]
        ]
      },
      "properties": {
        "line_id": "L_Dingle_Sta_Barbara_138",
        "from_bus": "Dingle",
        "to_bus": "Sta. Barbara",
        "voltage_kv": 138,
        "length_km": 22.515,
        "r_ohm_per_km": 0.120614,
        "x_ohm_per_km": 0.171283,
        "c_nf_per_km": 0.0,
        "max_i_ka": 0.5774,
        "is_submarine": false,
        "cable_type": "overhead",
        "parallel": 2,
        "loading_percent": 22.99,
        "p_from_mw": -16.342,
        "i_from_ka": 0.26544
      }
    },
    {
      "type": "Feature",
      "geometry": {
        "type": "LineString",
        "coordinates": [
          [
            122.5588103,
            10.83480342
          ],
          [
            122.5362605,
            10.99817987
          ]
        ]
      },
      "properties": {
        "line_id": "L_Sta_Barbara_San_Jose_138",
        "from_bus": "Sta. Barbara",
        "to_bus": "San Jose",
        "voltage_kv": 138,
        "length_km": 18.333,
        "r_ohm_per_km": 0.120614,
        "x_ohm_per_km": 0.171283,
        "c_nf_per_km": 0.0,
        "max_i_ka": 0.5774,
        "is_submarine": false,
        "cable_type": "overhead",
        "parallel": 1,
        "loading_percent": 13.23,
        "p_from_mw": 17.518,
        "i_from_ka": 0.07488
      }
    },
    {
      "type": "Feature",
      "geometry": {
        "type": "LineString",
        "coordinates": [
          [
            122.5588103,
            10.83480342
          ],
          [
            122.59255,
            10.72631
          ]
        ]
      },
      "properties": {
        "line_id": "L_Sta_Barbara_Iloilo_PEDC_138",
        "from_bus": "Sta. Barbara",
        "to_bus": "Iloilo (PEDC)",
        "voltage_kv": 138,
        "length_km": 12.614,
        "r_ohm_per_km": 0.128296,
        "x_ohm_per_km": 0.182193,
        "c_nf_per_km": 0.0,
        "max_i_ka": 0.5774,
        "is_submarine": false,
        "cable_type": "overhead",
        "parallel": 2,
        "loading_percent": 54.41,
        "p_from_mw": -119.069,
        "i_from_ka": 0.62827
      }
    },
    {
      "type": "Feature",
      "geometry": {
        "type": "LineString",
        "coordinates": [
          [
            122.5588103,
            10.83480342
          ],
          [
            122.5828264,
            10.72873409
          ]
        ]
      },
      "properties": {
        "line_id": "L_Sta_Barbara_Bantap_69",
        "from_bus": "Sta. Barbara",
        "to_bus": "Bantap",
        "voltage_kv": 69,
        "length_km": 12.083,
        "r_ohm_per_km": 0.078021,
        "x_ohm_per_km": 0.479703,
        "c_nf_per_km": 0.0,
        "max_i_ka": 0.5774,
        "is_submarine": false,
        "cable_type": "overhead",
        "parallel": 1,
        "loading_percent": 24.26,
        "p_from_mw": 15.362,
        "i_from_ka": 0.13947
      }
    },
    {
      "type": "Feature",
      "geometry": {
        "type": "LineString",
        "coordinates": [
          [
            122.5828264,
            10.72873409
          ],
          [
            122.6592157,
            10.71758251
          ]
        ]
      },
      "properties": {
        "line_id": "L_Bantap_Buenavista_Guimaras_69",
        "from_bus": "Bantap",
        "to_bus": "Buenavista (Guimaras)",
        "voltage_kv": 69,
        "length_km": 8.437,
        "r_ohm_per_km": 0.0754,
        "x_ohm_per_km": 0.121,
        "c_nf_per_km": 200.0,
        "max_i_ka": 0.645,
        "is_submarine": true,
        "cable_type": "submarine_xlpe",
        "parallel": 1,
        "loading_percent": 8.5,
        "p_from_mw": -5.693,
        "i_from_ka": 0.04802
      }
    },
    {
      "type": "Feature",
      "geometry": {
        "type": "LineString",
        "coordinates": [
          [
            122.6308302,
            11.02453374
          ],
          [
            122.870264,
            11.03283455
          ]
        ]
      },
      "properties": {
        "line_id": "L_Dingle_Barotac_Viejo_138",
        "from_bus": "Dingle",
        "to_bus": "Barotac Viejo",
        "voltage_kv": 138,
        "length_km": 26.148,
        "r_ohm_per_km": 0.120614,
        "x_ohm_per_km": 0.171283,
        "c_nf_per_km": 0.0,
        "max_i_ka": 0.5774,
        "is_submarine": false,
        "cable_type": "overhead",
        "parallel": 1,
        "loading_percent": 72.58,
        "p_from_mw": -96.205,
        "i_from_ka": 0.41697
      }
    },
    {
      "type": "Feature",
      "geometry": {
        "type": "LineString",
        "coordinates": [
          [
            122.870264,
            11.03283455
          ],
          [
            123.12058,
            11.18827
          ]
        ]
      },
      "properties": {
        "line_id": "L_Barotac_Viejo_Concepcion_138",
        "from_bus": "Barotac Viejo",
        "to_bus": "Concepcion",
        "voltage_kv": 138,
        "length_km": 32.321,
        "r_ohm_per_km": 0.220128,
        "x_ohm_per_km": 0.312602,
        "c_nf_per_km": 0.0,
        "max_i_ka": 0.5774,
        "is_submarine": false,
        "cable_type": "overhead",
        "parallel": 2,
        "loading_percent": 35.16,
        "p_from_mw": -90.87,
        "i_from_ka": 0.39918
      }
    },
    {
      "type": "Feature",
      "geometry": {
        "type": "LineString",
        "coordinates": [
          [
            122.870264,
            11.03283455
          ],
          [
            122.964067,
            10.895112
          ]
        ]
      },
      "properties": {
        "line_id": "L_Barotac_Viejo_EB_Magalona_230",
        "from_bus": "Barotac Viejo",
        "to_bus": "E.B. Magalona",
        "voltage_kv": 230,
        "length_km": 18.422,
        "r_ohm_per_km": 0.0754,
        "x_ohm_per_km": 0.121,
        "c_nf_per_km": 200.0,
        "max_i_ka": 0.645,
        "is_submarine": true,
        "cable_type": "submarine_xlpe",
        "parallel": 1,
        "loading_percent": 14.1,
        "p_from_mw": -6.988,
        "i_from_ka": 0.03867
      }
    },
    {
      "type": "Feature",
      "geometry": {
        "type": "LineString",
        "coordinates": [
          [
            122.964067,
            10.895112
          ],
          [
            122.989272,
            10.62946
          ]
        ]
      },
      "properties": {
        "line_id": "L_EB_Magalona_Bacolod_230",
        "from_bus": "E.B. Magalona",
        "to_bus": "Bacolod",
        "voltage_kv": 230,
        "length_km": 29.667,
        "r_ohm_per_km": 0.158154,
        "x_ohm_per_km": 0.076271,
        "c_nf_per_km": 0.0,
        "max_i_ka": 0.5774,
        "is_submarine": false,
        "cable_type": "overhead",
        "parallel": 2,
        "loading_percent": 34.84,
        "p_from_mw": 148.978,
        "i_from_ka": 0.39317
      }
    },
    {
      "type": "Feature",
      "geometry": {
        "type": "LineString",
        "coordinates": [
          [
            122.964067,
            10.895112
          ],
          [
            123.2882465,
            10.93482221
          ]
        ]
      },
      "properties": {
        "line_id": "L_EB_Magalona_Cadiz_230",
        "from_bus": "E.B. Magalona",
        "to_bus": "Cadiz",
        "voltage_kv": 230,
        "length_km": 35.669,
        "r_ohm_per_km": 0.16541,
        "x_ohm_per_km": 0.07977,
        "c_nf_per_km": 0.0,
        "max_i_ka": 0.5774,
        "is_submarine": false,
        "cable_type": "overhead",
        "parallel": 2,
        "loading_percent": 34.42,
        "p_from_mw": -155.985,
        "i_from_ka": 0.39744
      }
    },
    {
      "type": "Feature",
      "geometry": {
        "type": "LineString",
        "coordinates": [
          [
            123.2882465,
            10.93482221
          ],
          [
            123.292,
            10.92241
          ]
        ]
      },
      "properties": {
        "line_id": "L_Cadiz_Helios_Solar_138",
        "from_bus": "Cadiz",
        "to_bus": "Helios Solar",
        "voltage_kv": 138,
        "length_km": 1.44,
        "r_ohm_per_km": 0.136811,
        "x_ohm_per_km": 0.194285,
        "c_nf_per_km": 0.0,
        "max_i_ka": 0.5774,
        "is_submarine": false,
        "cable_type": "overhead",
        "parallel": 1,
        "loading_percent": 11.29,
        "p_from_mw": -26.247,
        "i_from_ka": 0.06519
      }
    },
    {
      "type": "Feature",
      "geometry": {
        "type": "LineString",
        "coordinates": [
          [
            123.2882465,
            10.93482221
          ],
          [
            123.4606946,
            10.55356153
          ]
        ]
      },
      "properties": {
        "line_id": "L_Cadiz_Calatrava_230",
        "from_bus": "Cadiz",
        "to_bus": "Calatrava",
        "voltage_kv": 230,
        "length_km": 46.392,
        "r_ohm_per_km": 0.166272,
        "x_ohm_per_km": 0.080186,
        "c_nf_per_km": 0.0,
        "max_i_ka": 0.5774,
        "is_submarine": false,
        "cable_type": "overhead",
        "parallel": 2,
        "loading_percent": 32.81,
        "p_from_mw": -148.857,
        "i_from_ka": 0.37895
      }
    },
    {
      "type": "Feature",
      "geometry": {
        "type": "LineString",
        "coordinates": [
          [
            123.4606946,
            10.55356153
          ],
          [
            123.43306,
            10.51522
          ]
        ]
      },
      "properties": {
        "line_id": "L_Calatrava_San_Carlos_69",
        "from_bus": "Calatrava",
        "to_bus": "San Carlos",
        "voltage_kv": 69,
        "length_km": 5.225,
        "r_ohm_per_km": 0.076752,
        "x_ohm_per_km": 0.471897,
        "c_nf_per_km": 0.0,
        "max_i_ka": 0.5774,
        "is_submarine": false,
        "cable_type": "overhead",
        "parallel": 2,
        "loading_percent": 12.24,
        "p_from_mw": -34.558,
        "i_from_ka": 0.1413
      }
    },
    {
      "type": "Feature",
      "geometry": {
        "type": "LineString",
        "coordinates": [
          [
            122.989272,
            10.62946
          ],
          [
            122.84776,
            10.0186
          ]
        ]
      },
      "properties": {
        "line_id": "L_Bacolod_Kabankalan_138",
        "from_bus": "Bacolod",
        "to_bus": "Kabankalan",
        "voltage_kv": 138,
        "length_km": 69.666,
        "r_ohm_per_km": 0.136177,
        "x_ohm_per_km": 0.193384,
        "c_nf_per_km": 0.0,
        "max_i_ka": 0.5774,
        "is_submarine": false,
        "cable_type": "overhead",
        "parallel": 2,
        "loading_percent": 6.79,
        "p_from_mw": -16.674,
        "i_from_ka": 0.07843
      }
    },
    {
      "type": "Feature",
      "geometry": {
        "type": "LineString",
        "coordinates": [
          [
            122.84776,
            10.0186
          ],
          [
            122.92435,
            9.72876
          ]
        ]
      },
      "properties": {
        "line_id": "L_Kabankalan_Mabinay_138",
        "from_bus": "Kabankalan",
        "to_bus": "Mabinay",
        "voltage_kv": 138,
        "length_km": 33.303,
        "r_ohm_per_km": 0.120601,
        "x_ohm_per_km": 0.171265,
        "c_nf_per_km": 0.0,
        "max_i_ka": 0.5774,
        "is_submarine": false,
        "cable_type": "overhead",
        "parallel": 2,
        "loading_percent": 15.11,
        "p_from_mw": -40.146,
        "i_from_ka": 0.17445
      }
    },
    {
      "type": "Feature",
      "geometry": {
        "type": "LineString",
        "coordinates": [
          [
            122.84776,
            10.0186
          ],
          [
            122.8516924,
            10.01997881
          ]
        ]
      },
      "properties": {
        "line_id": "L_Kabankalan_Kabankalan_BESS_138",
        "from_bus": "Kabankalan",
        "to_bus": "Kabankalan BESS",
        "voltage_kv": 138,
        "length_km": 0.5,
        "r_ohm_per_km": 0.09473,
        "x_ohm_per_km": 0.134526,
        "c_nf_per_km": 0.0,
        "max_i_ka": 0.5774,
        "is_submarine": false,
        "cable_type": "overhead",
        "parallel": 1,
        "loading_percent": 0.03,
        "p_from_mw": 0.0,
        "i_from_ka": 0.00015
      }
    },
    {
      "type": "Feature",
      "geometry": {
        "type": "LineString",
        "coordinates": [
          [
            122.92435,
            9.72876
          ],
          [
            123.2248121,
            9.457756504
          ]
        ]
      },
      "properties": {
        "line_id": "L_Mabinay_Amlan_138",
        "from_bus": "Mabinay",
        "to_bus": "Amlan",
        "voltage_kv": 138,
        "length_km": 44.646,
        "r_ohm_per_km": 0.120533,
        "x_ohm_per_km": 0.171168,
        "c_nf_per_km": 0.0,
        "max_i_ka": 0.5774,
        "is_submarine": false,
        "cable_type": "overhead",
        "parallel": 2,
        "loading_percent": 13.17,
        "p_from_mw": -35.324,
        "i_from_ka": 0.1521
      }
    },
    {
      "type": "Feature",
      "geometry": {
        "type": "LineString",
        "coordinates": [
          [
            123.2248121,
            9.457756504
          ],
          [
            123.1568919,
            9.280816763
          ]
        ]
      },
      "properties": {
        "line_id": "L_Amlan_Palinpinon_2_138",
        "from_bus": "Amlan",
        "to_bus": "Palinpinon 2",
        "voltage_kv": 138,
        "length_km": 21.039,
        "r_ohm_per_km": 0.120614,
        "x_ohm_per_km": 0.171283,
        "c_nf_per_km": 0.0,
        "max_i_ka": 0.5774,
        "is_submarine": false,
        "cable_type": "overhead",
        "parallel": 2,
        "loading_percent": 36.98,
        "p_from_mw": -100.161,
        "i_from_ka": 0.42395
      }
    },
    {
      "type": "Feature",
      "geometry": {
        "type": "LineString",
        "coordinates": [
          [
            123.2248121,
            9.457756504
          ],
          [
            123.1774662,
            9.296893436
          ]
        ]
      },
      "properties": {
        "line_id": "L_Amlan_Palinpinon_1_138",
        "from_bus": "Amlan",
        "to_bus": "Palinpinon 1",
        "voltage_kv": 138,
        "length_km": 18.626,
        "r_ohm_per_km": 0.120614,
        "x_ohm_per_km": 0.171283,
        "c_nf_per_km": 0.0,
        "max_i_ka": 0.5774,
        "is_submarine": false,
        "cable_type": "overhead",
        "parallel": 2,
        "loading_percent": 31.0,
        "p_from_mw": -86.888,
        "i_from_ka": 0.35789
      }
    },
    {
      "type": "Feature",
      "geometry": {
        "type": "LineString",
        "coordinates": [
          [
            123.2248121,
            9.457756504
          ],
          [
            123.308399,
            9.551115
          ]
        ]
      },
      "properties": {
        "line_id": "L_Amlan_Samboan_138",
        "from_bus": "Amlan",
        "to_bus": "Samboan",
        "voltage_kv": 138,
        "length_km": 13.849,
        "r_ohm_per_km": 0.0754,
        "x_ohm_per_km": 0.121,
        "c_nf_per_km": 200.0,
        "max_i_ka": 0.645,
        "is_submarine": true,
        "cable_type": "submarine_xlpe",
        "parallel": 2,
        "loading_percent": 27.87,
        "p_from_mw": 66.626,
        "i_from_ka": 0.35948
      }
    },
    {
      "type": "Feature",
      "geometry": {
        "type": "LineString",
        "coordinates": [
          [
            123.308399,
            9.551115
          ],
          [
            123.4405471,
            10.03617433
          ]
        ]
      },
      "properties": {
        "line_id": "L_Samboan_Dumanjug_138",
        "from_bus": "Samboan",
        "to_bus": "Dumanjug",
        "voltage_kv": 138,
        "length_km": 55.846,
        "r_ohm_per_km": 0.120116,
        "x_ohm_per_km": 0.170576,
        "c_nf_per_km": 0.0,
        "max_i_ka": 0.5774,
        "is_submarine": false,
        "cable_type": "overhead",
        "parallel": 2,
        "loading_percent": 23.14,
        "p_from_mw": 62.674,
        "i_from_ka": 0.26721
      }
    },
    {
      "type": "Feature",
      "geometry": {
        "type": "LineString",
        "coordinates": [
          [
            123.4405471,
            10.03617433
          ],
          [
            123.665698,
            10.3457421
          ]
        ]
      },
      "properties": {
        "line_id": "L_Dumanjug_Magdugo_230",
        "from_bus": "Dumanjug",
        "to_bus": "Magdugo",
        "voltage_kv": 230,
        "length_km": 42.333,
        "r_ohm_per_km": 0.166272,
        "x_ohm_per_km": 0.080186,
        "c_nf_per_km": 0.0,
        "max_i_ka": 0.5774,
        "is_submarine": false,
        "cable_type": "overhead",
        "parallel": 2,
        "loading_percent": 11.19,
        "p_from_mw": -8.745,
        "i_from_ka": 0.09088
      }
    },
    {
      "type": "Feature",
      "geometry": {
        "type": "LineString",
        "coordinates": [
          [
            123.665698,
            10.3457421
          ],
          [
            123.4606946,
            10.55356153
          ]
        ]
      },
      "properties": {
        "line_id": "L_Magdugo_Calatrava_230",
        "from_bus": "Magdugo",
        "to_bus": "Calatrava",
        "voltage_kv": 230,
        "length_km": 32.195,
        "r_ohm_per_km": 0.0754,
        "x_ohm_per_km": 0.121,
        "c_nf_per_km": 200.0,
        "max_i_ka": 0.645,
        "is_submarine": true,
        "cable_type": "submarine_xlpe",
        "parallel": 1,
        "loading_percent": 62.59,
        "p_from_mw": 116.754,
        "i_from_ka": 0.40369
      }
    },
    {
      "type": "Feature",
      "geometry": {
        "type": "LineString",
        "coordinates": [
          [
            123.665698,
            10.3457421
          ],
          [
            123.602486,
            10.350191
          ]
        ]
      },
      "properties": {
        "line_id": "L_Magdugo_Therma_Visayas_230",
        "from_bus": "Magdugo",
        "to_bus": "Therma Visayas",
        "voltage_kv": 230,
        "length_km": 6.932,
        "r_ohm_per_km": 0.087187,
        "x_ohm_per_km": 0.042047,
        "c_nf_per_km": 0.0,
        "max_i_ka": 0.5774,
        "is_submarine": false,
        "cable_type": "overhead",
        "parallel": 1,
        "loading_percent": 228.37,
        "p_from_mw": -238.351,
        "i_from_ka": 1.3186
      }
    },
    {
      "type": "Feature",
      "geometry": {
        "type": "LineString",
        "coordinates": [
          [
            123.665698,
            10.3457421
          ],
          [
            123.641023,
            10.387158
          ]
        ]
      },
      "properties": {
        "line_id": "L_Magdugo_Daan_Lungsod_138",
        "from_bus": "Magdugo",
        "to_bus": "Daan Lungsod",
        "voltage_kv": 138,
        "length_km": 5.338,
        "r_ohm_per_km": 0.1,
        "x_ohm_per_km": 0.42,
        "c_nf_per_km": 10.0,
        "max_i_ka": 0.5774,
        "is_submarine": false,
        "cable_type": "overhead",
        "parallel": 1,
        "loading_percent": 94.69,
        "p_from_mw": -172.983,
        "i_from_ka": 0.54503
      }
    },
    {
      "type": "Feature",
      "geometry": {
        "type": "LineString",
        "coordinates": [
          [
            123.665698,
            10.3457421
          ],
          [
            123.668582,
            10.415726
          ]
        ]
      },
      "properties": {
        "line_id": "L_Magdugo_Calong-calong_138",
        "from_bus": "Magdugo",
        "to_bus": "Calong-calong",
        "voltage_kv": 138,
        "length_km": 7.788,
        "r_ohm_per_km": 0.120545,
        "x_ohm_per_km": 0.171185,
        "c_nf_per_km": 0.0,
        "max_i_ka": 0.5774,
        "is_submarine": false,
        "cable_type": "overhead",
        "parallel": 2,
        "loading_percent": 30.44,
        "p_from_mw": 62.17,
        "i_from_ka": 0.34838
      }
    },
    {
      "type": "Feature",
      "geometry": {
        "type": "LineString",
        "coordinates": [
          [
            123.665698,
            10.3457421
          ],
          [
            123.7598772,
            10.22268355
          ]
        ]
      },
      "properties": {
        "line_id": "L_Magdugo_Colon_138",
        "from_bus": "Magdugo",
        "to_bus": "Colon",
        "voltage_kv": 138,
        "length_km": 17.129,
        "r_ohm_per_km": 0.120614,
        "x_ohm_per_km": 0.171283,
        "c_nf_per_km": 0.0,
        "max_i_ka": 0.5774,
        "is_submarine": false,
        "cable_type": "overhead",
        "parallel": 3,
        "loading_percent": 69.39,
        "p_from_mw": 223.463,
        "i_from_ka": 1.19217
      }
    },
    {
      "type": "Feature",
      "geometry": {
        "type": "LineString",
        "coordinates": [
          [
            123.4405471,
            10.03617433
          ],
          [
            123.7598772,
            10.22268355
          ]
        ]
      },
      "properties": {
        "line_id": "L_Dumanjug_Colon_138",
        "from_bus": "Dumanjug",
        "to_bus": "Colon",
        "voltage_kv": 138,
        "length_km": 40.644,
        "r_ohm_per_km": 0.120614,
        "x_ohm_per_km": 0.171283,
        "c_nf_per_km": 0.0,
        "max_i_ka": 0.5774,
        "is_submarine": false,
        "cable_type": "overhead",
        "parallel": 2,
        "loading_percent": 33.08,
        "p_from_mw": 87.274,
        "i_from_ka": 0.37512
      }
    },
    {
      "type": "Feature",
      "geometry": {
        "type": "LineString",
        "coordinates": [
          [
            123.668582,
            10.415726
          ],
          [
            123.706851,
            10.341147
          ]
        ]
      },
      "properties": {
        "line_id": "L_Calong-calong_Toledo_BESS_138",
        "from_bus": "Calong-calong",
        "to_bus": "Toledo BESS",
        "voltage_kv": 138,
        "length_km": 9.289,
        "r_ohm_per_km": 0.023709,
        "x_ohm_per_km": 4.379679,
        "c_nf_per_km": 0.0,
        "max_i_ka": 0.0577,
        "is_submarine": false,
        "cable_type": "overhead",
        "parallel": 1,
        "loading_percent": 4.87,
        "p_from_mw": 0.0,
        "i_from_ka": 0.00281
      }
    },
    {
      "type": "Feature",
      "geometry": {
        "type": "LineString",
        "coordinates": [
          [
            123.7598772,
            10.22268355
          ],
          [
            123.758582,
            10.223256
          ]
        ]
      },
      "properties": {
        "line_id": "L_Colon_Naga_Visayas_138",
        "from_bus": "Colon",
        "to_bus": "Naga (Visayas)",
        "voltage_kv": 138,
        "length_km": 0.5,
        "r_ohm_per_km": 0.201108,
        "x_ohm_per_km": 37.150596,
        "c_nf_per_km": 0.0,
        "max_i_ka": 0.0577,
        "is_submarine": false,
        "cable_type": "overhead",
        "parallel": 3,
        "loading_percent": 23.63,
        "p_from_mw": -9.7,
        "i_from_ka": 0.04091
      }
    },
    {
      "type": "Feature",
      "geometry": {
        "type": "LineString",
        "coordinates": [
          [
            123.7598772,
            10.22268355
          ],
          [
            123.706851,
            10.341147
          ]
        ]
      },
      "properties": {
        "line_id": "L_Colon_Toledo_138",
        "from_bus": "Colon",
        "to_bus": "Toledo",
        "voltage_kv": 138,
        "length_km": 14.394,
        "r_ohm_per_km": 0.143705,
        "x_ohm_per_km": 0.204075,
        "c_nf_per_km": 0.0,
        "max_i_ka": 0.5774,
        "is_submarine": false,
        "cable_type": "overhead",
        "parallel": 1,
        "loading_percent": 35.71,
        "p_from_mw": -41.476,
        "i_from_ka": 0.20617
      }
    },
    {
      "type": "Feature",
      "geometry": {
        "type": "LineString",
        "coordinates": [
          [
            123.668582,
            10.415726
          ],
          [
            123.706851,
            10.341147
          ]
        ]
      },
      "properties": {
        "line_id": "L_Calong-calong_Toledo_138",
        "from_bus": "Calong-calong",
        "to_bus": "Toledo",
        "voltage_kv": 138,
        "length_km": 9.289,
        "r_ohm_per_km": 0.100778,
        "x_ohm_per_km": 0.143114,
        "c_nf_per_km": 0.0,
        "max_i_ka": 0.5774,
        "is_submarine": false,
        "cable_type": "overhead",
        "parallel": 1,
        "loading_percent": 45.41,
        "p_from_mw": 40.148,
        "i_from_ka": 0.26004
      }
    },
    {
      "type": "Feature",
      "geometry": {
        "type": "LineString",
        "coordinates": [
          [
            123.7598772,
            10.22268355
          ],
          [
            123.7626806,
            10.21827094
          ]
        ]
      },
      "properties": {
        "line_id": "L_Colon_KSPC_138",
        "from_bus": "Colon",
        "to_bus": "KSPC",
        "voltage_kv": 138,
        "length_km": 0.579,
        "r_ohm_per_km": 0.120613,
        "x_ohm_per_km": 0.171282,
        "c_nf_per_km": 0.0,
        "max_i_ka": 0.5774,
        "is_submarine": false,
        "cable_type": "overhead",
        "parallel": 2,
        "loading_percent": 56.22,
        "p_from_mw": -148.054,
        "i_from_ka": 0.64928
      }
    },
    {
      "type": "Feature",
      "geometry": {
        "type": "LineString",
        "coordinates": [
          [
            123.7598772,
            10.22268355
          ],
          [
            123.91842,
            10.359868
          ]
        ]
      },
      "properties": {
        "line_id": "L_Colon_Cebu_138",
        "from_bus": "Colon",
        "to_bus": "Cebu",
        "voltage_kv": 138,
        "length_km": 23.099,
        "r_ohm_per_km": 0.132435,
        "x_ohm_per_km": 0.18807,
        "c_nf_per_km": 0.0,
        "max_i_ka": 0.5774,
        "is_submarine": false,
        "cable_type": "overhead",
        "parallel": 2,
        "loading_percent": 112.11,
        "p_from_mw": 239.833,
        "i_from_ka": 1.2863
      }
    },
    {
      "type": "Feature",
      "geometry": {
        "type": "LineString",
        "coordinates": [
          [
            123.7598772,
            10.22268355
          ],
          [
            123.855494,
            10.287685
          ]
        ]
      },
      "properties": {
        "line_id": "L_Colon_Quiot_138",
        "from_bus": "Colon",
        "to_bus": "Quiot",
        "voltage_kv": 138,
        "length_km": 12.716,
        "r_ohm_per_km": 0.1,
        "x_ohm_per_km": 0.42,
        "c_nf_per_km": 10.0,
        "max_i_ka": 0.5774,
        "is_submarine": false,
        "cable_type": "overhead",
        "parallel": 1,
        "loading_percent": 80.4,
        "p_from_mw": 102.62,
        "i_from_ka": 0.46293
      }
    },
    {
      "type": "Feature",
      "geometry": {
        "type": "LineString",
        "coordinates": [
          [
            123.91842,
            10.359868
          ],
          [
            123.963596,
            10.32946
          ]
        ]
      },
      "properties": {
        "line_id": "L_Cebu_Mandaue_138",
        "from_bus": "Cebu",
        "to_bus": "Mandaue",
        "voltage_kv": 138,
        "length_km": 5.988,
        "r_ohm_per_km": 0.085146,
        "x_ohm_per_km": 0.120916,
        "c_nf_per_km": 0.0,
        "max_i_ka": 0.5774,
        "is_submarine": false,
        "cable_type": "overhead",
        "parallel": 2,
        "loading_percent": 51.02,
        "p_from_mw": 46.19,
        "i_from_ka": 0.58597
      }
    },
    {
      "type": "Feature",
      "geometry": {
        "type": "LineString",
        "coordinates": [
          [
            123.963596,
            10.32946
          ],
          [
            123.967921,
            10.323788
          ]
        ]
      },
      "properties": {
        "line_id": "L_Mandaue_Lapu-Lapu_Pusok_138",
        "from_bus": "Mandaue",
        "to_bus": "Lapu-Lapu (Pusok)",
        "voltage_kv": 138,
        "length_km": 0.788,
        "r_ohm_per_km": 0.199332,
        "x_ohm_per_km": 0.28307,
        "c_nf_per_km": 0.0,
        "max_i_ka": 0.5774,
        "is_submarine": false,
        "cable_type": "overhead",
        "parallel": 2,
        "loading_percent": 58.46,
        "p_from_mw": 145.257,
        "i_from_ka": 0.6749
      }
    },
    {
      "type": "Feature",
      "geometry": {
        "type": "LineString",
        "coordinates": [
          [
            123.963596,
            10.32946
          ],
          [
            124.0065977,
            10.46649795
          ]
        ]
      },
      "properties": {
        "line_id": "L_Mandaue_Compostela_138",
        "from_bus": "Mandaue",
        "to_bus": "Compostela",
        "voltage_kv": 138,
        "length_km": 15.947,
        "r_ohm_per_km": 0.783255,
        "x_ohm_per_km": 1.112296,
        "c_nf_per_km": 0.0,
        "max_i_ka": 0.5774,
        "is_submarine": false,
        "cable_type": "overhead",
        "parallel": 2,
        "loading_percent": 91.1,
        "p_from_mw": -235.231,
        "i_from_ka": 1.05116
      }
    },
    {
      "type": "Feature",
      "geometry": {
        "type": "LineString",
        "coordinates": [
          [
            124.0065977,
            10.46649795
          ],
          [
            124.066134,
            11.252493
          ]
        ]
      },
      "properties": {
        "line_id": "L_Compostela_Daanbantayan_230",
        "from_bus": "Compostela",
        "to_bus": "Daanbantayan",
        "voltage_kv": 230,
        "length_km": 87.64,
        "r_ohm_per_km": 0.036175,
        "x_ohm_per_km": 0.017446,
        "c_nf_per_km": 0.0,
        "max_i_ka": 0.5774,
        "is_submarine": false,
        "cable_type": "overhead",
        "parallel": 2,
        "loading_percent": 65.09,
        "p_from_mw": -305.642,
        "i_from_ka": 0.75167
      }
    },
    {
      "type": "Feature",
      "geometry": {
        "type": "LineString",
        "coordinates": [
          [
            124.066134,
            11.252493
          ],
          [
            124.3434864,
            11.32347232
          ]
        ]
      },
      "properties": {
        "line_id": "L_Daanbantayan_Tabango_230",
        "from_bus": "Daanbantayan",
        "to_bus": "Tabango",
        "voltage_kv": 230,
        "length_km": 31.256,
        "r_ohm_per_km": 0.0754,
        "x_ohm_per_km": 0.121,
        "c_nf_per_km": 200.0,
        "max_i_ka": 0.645,
        "is_submarine": true,
        "cable_type": "submarine_xlpe",
        "parallel": 2,
        "loading_percent": 79.88,
        "p_from_mw": -343.603,
        "i_from_ka": 0.83244
      }
    },
    {
      "type": "Feature",
      "geometry": {
        "type": "LineString",
        "coordinates": [
          [
            124.3434864,
            11.32347232
          ],
          [
            124.5513085,
            11.16499313
          ]
        ]
      },
      "properties": {
        "line_id": "L_Tabango_Kananga_230",
        "from_bus": "Tabango",
        "to_bus": "Kananga",
        "voltage_kv": 230,
        "length_km": 28.71,
        "r_ohm_per_km": 0.06,
        "x_ohm_per_km": 0.4,
        "c_nf_per_km": 9.0,
        "max_i_ka": 0.5774,
        "is_submarine": false,
        "cable_type": "overhead",
        "parallel": 2,
        "loading_percent": 90.57,
        "p_from_mw": -346.343,
        "i_from_ka": 1.03048
      }
    },
    {
      "type": "Feature",
      "geometry": {
        "type": "LineString",
        "coordinates": [
          [
            124.5513085,
            11.16499313
          ],
          [
            124.6446783,
            11.08748498
          ]
        ]
      },
      "properties": {
        "line_id": "L_Kananga_Ormoc_230",
        "from_bus": "Kananga",
        "to_bus": "Ormoc",
        "voltage_kv": 230,
        "length_km": 13.344,
        "r_ohm_per_km": 0.06,
        "x_ohm_per_km": 0.4,
        "c_nf_per_km": 9.0,
        "max_i_ka": 0.5774,
        "is_submarine": false,
        "cable_type": "overhead",
        "parallel": 2,
        "loading_percent": 85.75,
        "p_from_mw": 67.451,
        "i_from_ka": 0.97829
      }
    },
    {
      "type": "Feature",
      "geometry": {
        "type": "LineString",
        "coordinates": [
          [
            124.6446783,
            11.08748498
          ],
          [
            124.643492,
            11.140405
          ]
        ]
      },
      "properties": {
        "line_id": "L_Ormoc_Tongonan_138",
        "from_bus": "Ormoc",
        "to_bus": "Tongonan",
        "voltage_kv": 138,
        "length_km": 5.886,
        "r_ohm_per_km": 0.16898,
        "x_ohm_per_km": 0.239968,
        "c_nf_per_km": 0.0,
        "max_i_ka": 0.5774,
        "is_submarine": false,
        "cable_type": "overhead",
        "parallel": 1,
        "loading_percent": 54.45,
        "p_from_mw": -75.928,
        "i_from_ka": 0.3144
      }
    },
    {
      "type": "Feature",
      "geometry": {
        "type": "LineString",
        "coordinates": [
          [
            124.6446783,
            11.08748498
          ],
          [
            124.4489301,
            10.91933332
          ]
        ]
      },
      "properties": {
        "line_id": "L_Ormoc_Isabel_138",
        "from_bus": "Ormoc",
        "to_bus": "Isabel",
        "voltage_kv": 138,
        "length_km": 28.392,
        "r_ohm_per_km": 0.120614,
        "x_ohm_per_km": 0.171283,
        "c_nf_per_km": 0.0,
        "max_i_ka": 0.5774,
        "is_submarine": false,
        "cable_type": "overhead",
        "parallel": 1,
        "loading_percent": 3.71,
        "p_from_mw": -2.544,
        "i_from_ka": 0.01452
      }
    },
    {
      "type": "Feature",
      "geometry": {
        "type": "LineString",
        "coordinates": [
          [
            124.643492,
            11.140405
          ],
          [
            124.4489301,
            10.91933332
          ]
        ]
      },
      "properties": {
        "line_id": "L_Tongonan_Isabel_138",
        "from_bus": "Tongonan",
        "to_bus": "Isabel",
        "voltage_kv": 138,
        "length_km": 32.484,
        "r_ohm_per_km": 0.125795,
        "x_ohm_per_km": 0.17864,
        "c_nf_per_km": 0.0,
        "max_i_ka": 0.5774,
        "is_submarine": false,
        "cable_type": "overhead",
        "parallel": 1,
        "loading_percent": 12.41,
        "p_from_mw": 16.397,
        "i_from_ka": 0.06889
      }
    },
    {
      "type": "Feature",
      "geometry": {
        "type": "LineString",
        "coordinates": [
          [
            124.6446783,
            11.08748498
          ],
          [
            124.95084,
            11.35646
          ]
        ]
      },
      "properties": {
        "line_id": "L_Ormoc_Babatngon_138",
        "from_bus": "Ormoc",
        "to_bus": "Babatngon",
        "voltage_kv": 138,
        "length_km": 44.829,
        "r_ohm_per_km": 0.118155,
        "x_ohm_per_km": 0.167792,
        "c_nf_per_km": 0.0,
        "max_i_ka": 0.5774,
        "is_submarine": false,
        "cable_type": "overhead",
        "parallel": 2,
        "loading_percent": 49.19,
        "p_from_mw": 134.143,
        "i_from_ka": 0.56262
      }
    },
    {
      "type": "Feature",
      "geometry": {
        "type": "LineString",
        "coordinates": [
          [
            124.95084,
            11.35646
          ],
          [
            125.00164,
            11.39505
          ]
        ]
      },
      "properties": {
        "line_id": "L_Babatngon_Sta_Rita_138",
        "from_bus": "Babatngon",
        "to_bus": "Sta. Rita",
        "voltage_kv": 138,
        "length_km": 7.006,
        "r_ohm_per_km": 0.197711,
        "x_ohm_per_km": 0.280768,
        "c_nf_per_km": 0.0,
        "max_i_ka": 0.5774,
        "is_submarine": false,
        "cable_type": "overhead",
        "parallel": 2,
        "loading_percent": 14.17,
        "p_from_mw": 38.187,
        "i_from_ka": 0.16293
      }
    },
    {
      "type": "Feature",
      "geometry": {
        "type": "LineString",
        "coordinates": [
          [
            124.95084,
            11.35646
          ],
          [
            125.0406,
            11.76752
          ]
        ]
      },
      "properties": {
        "line_id": "L_Babatngon_Paranas_Wright_138",
        "from_bus": "Babatngon",
        "to_bus": "Paranas (Wright)",
        "voltage_kv": 138,
        "length_km": 46.742,
        "r_ohm_per_km": 0.114019,
        "x_ohm_per_km": 0.161917,
        "c_nf_per_km": 0.0,
        "max_i_ka": 0.5774,
        "is_submarine": false,
        "cable_type": "overhead",
        "parallel": 1,
        "loading_percent": 22.87,
        "p_from_mw": 30.516,
        "i_from_ka": 0.12972
      }
    },
    {
      "type": "Feature",
      "geometry": {
        "type": "LineString",
        "coordinates": [
          [
            125.0406,
            11.76752
          ],
          [
            125.00164,
            11.39505
          ]
        ]
      },
      "properties": {
        "line_id": "L_Paranas_Wright_Sta_Rita_138",
        "from_bus": "Paranas (Wright)",
        "to_bus": "Sta. Rita",
        "voltage_kv": 138,
        "length_km": 41.634,
        "r_ohm_per_km": 0.120392,
        "x_ohm_per_km": 0.170968,
        "c_nf_per_km": 0.0,
        "max_i_ka": 0.5774,
        "is_submarine": false,
        "cable_type": "overhead",
        "parallel": 1,
        "loading_percent": 20.38,
        "p_from_mw": -26.928,
        "i_from_ka": 0.11767
      }
    },
    {
      "type": "Feature",
      "geometry": {
        "type": "LineString",
        "coordinates": [
          [
            125.0406,
            11.76752
          ],
          [
            124.63548,
            12.05454
          ]
        ]
      },
      "properties": {
        "line_id": "L_Paranas_Wright_Calbayog_138",
        "from_bus": "Paranas (Wright)",
        "to_bus": "Calbayog",
        "voltage_kv": 138,
        "length_km": 54.419,
        "r_ohm_per_km": 0.120484,
        "x_ohm_per_km": 0.171099,
        "c_nf_per_km": 0.0,
        "max_i_ka": 0.5774,
        "is_submarine": false,
        "cable_type": "overhead",
        "parallel": 2,
        "loading_percent": 14.18,
        "p_from_mw": 36.45,
        "i_from_ka": 0.15673
      }
    },
    {
      "type": "Feature",
      "geometry": {
        "type": "LineString",
        "coordinates": [
          [
            124.6446783,
            11.08748498
          ],
          [
            124.7791313,
            10.16255469
          ]
        ]
      },
      "properties": {
        "line_id": "L_Ormoc_Maasin_138",
        "from_bus": "Ormoc",
        "to_bus": "Maasin",
        "voltage_kv": 138,
        "length_km": 103.892,
        "r_ohm_per_km": 0.120614,
        "x_ohm_per_km": 0.171283,
        "c_nf_per_km": 0.0,
        "max_i_ka": 0.5774,
        "is_submarine": false,
        "cable_type": "overhead",
        "parallel": 2,
        "loading_percent": 57.47,
        "p_from_mw": 144.077,
        "i_from_ka": 0.66363
      }
    },
    {
      "type": "Feature",
      "geometry": {
        "type": "LineString",
        "coordinates": [
          [
            124.7791313,
            10.16255469
          ],
          [
            124.5114284,
            10.02667044
          ]
        ]
      },
      "properties": {
        "line_id": "L_Maasin_Ubay_138",
        "from_bus": "Maasin",
        "to_bus": "Ubay",
        "voltage_kv": 138,
        "length_km": 32.972,
        "r_ohm_per_km": 0.0754,
        "x_ohm_per_km": 0.121,
        "c_nf_per_km": 200.0,
        "max_i_ka": 0.645,
        "is_submarine": true,
        "cable_type": "submarine_xlpe",
        "parallel": 1,
        "loading_percent": 83.08,
        "p_from_mw": 101.534,
        "i_from_ka": 0.53584
      }
    },
    {
      "type": "Feature",
      "geometry": {
        "type": "LineString",
        "coordinates": [
          [
            124.5114284,
            10.02667044
          ],
          [
            124.5195759,
            10.06090051
          ]
        ]
      },
      "properties": {
        "line_id": "L_Ubay_Tapal_69",
        "from_bus": "Ubay",
        "to_bus": "Tapal",
        "voltage_kv": 69,
        "length_km": 3.909,
        "r_ohm_per_km": 0.078021,
        "x_ohm_per_km": 0.479703,
        "c_nf_per_km": 0.0,
        "max_i_ka": 0.5774,
        "is_submarine": false,
        "cable_type": "overhead",
        "parallel": 1,
        "loading_percent": 6.3,
        "p_from_mw": -8.699,
        "i_from_ka": 0.03638
      }
    },
    {
      "type": "Feature",
      "geometry": {
        "type": "LineString",
        "coordinates": [
          [
            124.5114284,
            10.02667044
          ],
          [
            123.90328,
            9.68029
          ]
        ]
      },
      "properties": {
        "line_id": "L_Ubay_Corella_138",
        "from_bus": "Ubay",
        "to_bus": "Corella",
        "voltage_kv": 138,
        "length_km": 76.957,
        "r_ohm_per_km": 0.110619,
        "x_ohm_per_km": 0.15709,
        "c_nf_per_km": 0.0,
        "max_i_ka": 0.5774,
        "is_submarine": false,
        "cable_type": "overhead",
        "parallel": 1,
        "loading_percent": 44.99,
        "p_from_mw": 50.075,
        "i_from_ka": 0.2598
      }
    },
    {
      "type": "Feature",
      "geometry": {
        "type": "LineString",
        "coordinates": [
          [
            124.5114284,
            10.02667044
          ],
          [
            123.90328,
            9.68029
          ]
        ]
      },
      "properties": {
        "line_id": "L_Ubay_Corella_69",
        "from_bus": "Ubay",
        "to_bus": "Corella",
        "voltage_kv": 69,
        "length_km": 76.957,
        "r_ohm_per_km": 0.071556,
        "x_ohm_per_km": 0.439954,
        "c_nf_per_km": 0.0,
        "max_i_ka": 0.5774,
        "is_submarine": false,
        "cable_type": "overhead",
        "parallel": 1,
        "loading_percent": 19.29,
        "p_from_mw": 25.828,
        "i_from_ka": 0.11136
      }
    },
    {
      "type": "Feature",
      "geometry": {
        "type": "LineString",
        "coordinates": [
          [
            123.61,
            9.879
          ],
          [
            123.836,
            9.748
          ]
        ]
      },
      "properties": {
        "line_id": "L_Argao_Maribojoc_230",
        "from_bus": "Argao",
        "to_bus": "Maribojoc",
        "voltage_kv": 230,
        "length_km": 28.729,
        "r_ohm_per_km": 0.0754,
        "x_ohm_per_km": 0.121,
        "c_nf_per_km": 200.0,
        "max_i_ka": 0.645,
        "is_submarine": true,
        "cable_type": "submarine_xlpe",
        "parallel": 1,
        "loading_percent": 25.48,
        "p_from_mw": -17.463,
        "i_from_ka": 0.16436
      }
    },
    {
      "type": "Feature",
      "geometry": {
        "type": "LineString",
        "coordinates": [
          [
            123.61,
            9.879
          ],
          [
            123.4405471,
            10.03617433
          ]
        ]
      },
      "properties": {
        "line_id": "L_Argao_Dumanjug_230",
        "from_bus": "Argao",
        "to_bus": "Dumanjug",
        "voltage_kv": 230,
        "length_km": 25.492,
        "r_ohm_per_km": 0.392274,
        "x_ohm_per_km": 0.058841,
        "c_nf_per_km": 0.0,
        "max_i_ka": 1.0041,
        "is_submarine": false,
        "cable_type": "overhead",
        "parallel": 1,
        "loading_percent": 17.51,
        "p_from_mw": 17.463,
        "i_from_ka": 0.16436
      }
    },
    {
      "type": "Feature",
      "geometry": {
        "type": "LineString",
        "coordinates": [
          [
            123.836,
            9.748
          ],
          [
            123.90328,
            9.68029
          ]
        ]
      },
      "properties": {
        "line_id": "L_Maribojoc_Corella_138",
        "from_bus": "Maribojoc",
        "to_bus": "Corella",
        "voltage_kv": 138,
        "length_km": 10.539,
        "r_ohm_per_km": 0.234378,
        "x_ohm_per_km": 0.165108,
        "c_nf_per_km": 0.0,
        "max_i_ka": 0.5774,
        "is_submarine": false,
        "cable_type": "overhead",
        "parallel": 1,
        "loading_percent": 42.09,
        "p_from_mw": -17.558,
        "i_from_ka": 0.24002
      }
    }
  ]
}