{
  "type": "FeatureCollection",
  "features": [
    {
      "type": "Feature",
      "geometry": {
        "type": "Point",
        "coordinates": [
          124.95084,
          11.35646
        ]
      },
      "properties": {
        "name": "Babatngon",
        "x": 124.95084,
        "y": 11.35646,
        "v_nom": 138,
        "voltages_kv": 138,
        "island": "Leyte",
        "bus_type": "substation",
        "p_mw": 54.6,
        "q_mvar": 16.4,
        "is_slack": false,
        "load_count": 2,
        "gen_capacity_mw": 0.0,
        "gen_mw": 0.0,
        "gen_carriers": null,
        "primary_carrier": null,
        "connected": true,
        "vm_pu": 0.9917,
        "va_degree": -2.9263
      }
    },
    {
      "type": "Feature",
      "geometry": {
        "type": "Point",
        "coordinates": [
          124.63548,
          12.05454
        ]
      },
      "properties": {
        "name": "Calbayog",
        "x": 124.63548,
        "y": 12.05454,
        "v_nom": 138,
        "voltages_kv": 138,
        "island": "Samar",
        "bus_type": "substation",
        "p_mw": 38.3,
        "q_mvar": 11.5,
        "is_slack": false,
        "load_count": 3,
        "gen_capacity_mw": 11.0,
        "gen_mw": 1.65,
        "gen_carriers": "Diesel",
        "primary_carrier": "Diesel",
        "connected": true,
        "vm_pu": 0.9723,
        "va_degree": -4.0258
      }
    },
    {
      "type": "Feature",
      "geometry": {
        "type": "Point",
        "coordinates": [
          124.4489301,
          10.91933332
        ]
      },
      "properties": {
        "name": "Isabel",
        "x": 124.4489301,
        "y": 10.91933332,
        "v_nom": 138,
        "voltages_kv": 138,
        "island": "Leyte",
        "bus_type": "substation",
        "p_mw": 25.2,
        "q_mvar": 7.6,
        "is_slack": false,
        "load_count": 6,
        "gen_capacity_mw": 70.7,
        "gen_mw": 10.6,
        "gen_carriers": "Diesel",
        "primary_carrier": "Diesel",
        "connected": true,
        "vm_pu": 1.0146,
        "va_degree": -1.6771
      }
    },
    {
      "type": "Feature",
      "geometry": {
        "type": "Point",
        "coordinates": [
          124.5513085,
          11.16499313
        ]
      },
      "properties": {
        "name": "Kananga",
        "x": 124.5513085,
        "y": 11.16499313,
        "v_nom": 230,
        "voltages_kv": 230,
        "island": "Leyte",
        "bus_type": "substation",
        "p_mw": 0.0,
        "q_mvar": 0.0,
        "is_slack": false,
        "load_count": 1,
        "gen_capacity_mw": 610.2,
        "gen_mw": 518.67,
        "gen_carriers": "Geothermal",
        "primary_carrier": "Geothermal",
        "connected": true,
        "vm_pu": 1.02,
        "va_degree": 1.0428
      }
    },
    {
      "type": "Feature",
      "geometry": {
        "type": "Point",
        "coordinates": [
          124.7791313,
          10.16255469
        ]
      },
      "properties": {
        "name": "Maasin",
        "x": 124.7791313,
        "y": 10.16255469,
        "v_nom": 138,
        "voltages_kv": 138,
        "island": "Leyte",
        "bus_type": "substation",
        "p_mw": 32.5,
        "q_mvar": 9.8,
        "is_slack": false,
        "load_count": 3,
        "gen_capacity_mw": 0.0,
        "gen_mw": 0.0,
        "gen_carriers": null,
        "primary_carrier": null,
        "connected": true,
        "vm_pu": 1.018,
        "va_degree": -2.2896
      }
    },
    {
      "type": "Feature",
      "geometry": {
        "type": "Point",
        "coordinates": [
          124.6446783,
          11.08748498
        ]
      },
      "properties": {
        "name": "Ormoc",
        "x": 124.6446783,
        "y": 11.08748498,
        "v_nom": 350,
        "voltages_kv": 350,
        "island": "Leyte",
        "bus_type": "hvdc",
        "p_mw": 40.9,
        "q_mvar": 12.3,
        "is_slack": true,
        "load_count": 3,
        "gen_capacity_mw": 114.5,
        "gen_mw": 37.15,
        "gen_carriers": "Geothermal,Solar,BESS",
        "primary_carrier": "Solar",
        "connected": true,
        "vm_pu": 1.0,
        "va_degree": 0.0,
        "hvdc_import_mw": -355.0
      }
    },
    {
      "type": "Feature",
      "geometry": {
        "type": "Point",
        "coordinates": [
          125.0406,
          11.76752
        ]
      },
      "properties": {
        "name": "Paranas (Wright)",
        "x": 125.0406,
        "y": 11.76752,
        "v_nom": 138,
        "voltages_kv": 138,
        "island": "Samar",
        "bus_type": "substation",
        "p_mw": 26.8,
        "q_mvar": 8.0,
        "is_slack": false,
        "load_count": 3,
        "gen_capacity_mw": 15.2,
        "gen_mw": 5.32,
        "gen_carriers": "ROR",
        "primary_carrier": "ROR",
        "connected": true,
        "vm_pu": 0.9808,
        "va_degree": -3.5683
      }
    },
    {
      "type": "Feature",
      "geometry": {
        "type": "Point",
        "coordinates": [
          125.00164,
          11.39505
        ]
      },
      "properties": {
        "name": "Sta. Rita",
        "x": 125.00164,
        "y": 11.39505,
        "v_nom": 138,
        "voltages_kv": 138,
        "island": "Samar",
        "bus_type": "substation",
        "p_mw": 11.3,
        "q_mvar": 3.4,
        "is_slack": false,
        "load_count": 3,
        "gen_capacity_mw": 0.0,
        "gen_mw": 0.0,
        "gen_carriers": null,
        "primary_carrier": null,
        "connected": true,
        "vm_pu": 0.9899,
        "va_degree": -3.0307
      }
    },
    {
      "type": "Feature",
      "geometry": {
        "type": "Point",
        "coordinates": [
          124.3434864,
          11.32347232
        ]
      },
      "properties": {
        "name": "Tabango",
        "x": 124.3434864,
        "y": 11.32347232,
        "v_nom": 230,
        "voltages_kv": 230,
        "island": "Leyte",
        "bus_type": "substation",
        "p_mw": 0.0,
        "q_mvar": 0.0,
        "is_slack": false,
        "load_count": 2,
        "gen_capacity_mw": 0.0,
        "gen_mw": 0.0,
        "gen_carriers": null,
        "primary_carrier": null,
        "connected": true,
        "vm_pu": 1.0414,
        "va_degree": 0.2747
      }
    },
    {
      "type": "Feature",
      "geometry": {
        "type": "Point",
        "coordinates": [
          124.643492,
          11.140405
        ]
      },
      "properties": {
        "name": "Tongonan",
        "x": 124.643492,
        "y": 11.140405,
        "v_nom": 138,
        "voltages_kv": 138,
        "island": "Leyte",
        "bus_type": "generator",
        "p_mw": 10.0,
        "q_mvar": 3.0,
        "is_slack": false,
        "load_count": 1,
        "gen_capacity_mw": 123.0,
        "gen_mw": 104.55,
        "gen_carriers": "Geothermal",
        "primary_carrier": "Geothermal",
        "connected": true,
        "vm_pu": 1.02,
        "va_degree": -1.4659
      }
    },
    {
      "type": "Feature",
      "geometry": {
        "type": "Point",
        "coordinates": [
          123.61,
          9.879
        ]
      },
      "properties": {
        "name": "Argao",
        "x": 123.61,
        "y": 9.879,
        "v_nom": 230,
        "voltages_kv": 230,
        "island": "Cebu",
        "bus_type": "substation",
        "p_mw": 0.0,
        "q_mvar": 0.0,
        "is_slack": false,
        "load_count": 0,
        "gen_capacity_mw": 0.0,
        "gen_mw": 0.0,
        "gen_carriers": null,
        "primary_carrier": null,
        "connected": true,
        "vm_pu": 1.0137,
        "va_degree": 2.3728
      }
    },
    {
      "type": "Feature",
      "geometry": {
        "type": "Point",
        "coordinates": [
          123.668582,
          10.415726
        ]
      },
      "properties": {
        "name": "Calong-calong",
        "x": 123.668582,
        "y": 10.415726,
        "v_nom": 138,
        "voltages_kv": 138,
        "island": "Cebu",
        "bus_type": "substation",
        "p_mw": 20.6,
        "q_mvar": 6.2,
        "is_slack": false,
        "load_count": 4,
        "gen_capacity_mw": 49.0,
        "gen_mw": 8.82,
        "gen_carriers": "Solar",
        "primary_carrier": "Solar",
        "connected": true,
        "vm_pu": 1.0094,
        "va_degree": 2.3821
      }
    },
    {
      "type": "Feature",
      "geometry": {
        "type": "Point",
        "coordinates": [
          123.91842,
          10.359868
        ]
      },
      "properties": {
        "name": "Cebu",
        "x": 123.91842,
        "y": 10.359868,
        "v_nom": 138,
        "voltages_kv": 138,
        "island": "Cebu",
        "bus_type": "substation",
        "p_mw": 141.4,
        "q_mvar": 42.4,
        "is_slack": false,
        "load_count": 3,
        "gen_capacity_mw": 0.0,
        "gen_mw": 0.0,
        "gen_carriers": null,
        "primary_carrier": null,
        "connected": true,
        "vm_pu": 0.9665,
        "va_degree": -0.036
      }
    },
    {
      "type": "Feature",
      "geometry": {
        "type": "Point",
        "coordinates": [
          123.7598772,
          10.22268355
        ]
      },
      "properties": {
        "name": "Colon",
        "x": 123.7598772,
        "y": 10.22268355,
        "v_nom": 138,
        "voltages_kv": 138,
        "island": "Cebu",
        "bus_type": "substation",
        "p_mw": 139.2,
        "q_mvar": 41.8,
        "is_slack": false,
        "load_count": 5,
        "gen_capacity_mw": 0.0,
        "gen_mw": 0.0,
        "gen_carriers": null,
        "primary_carrier": null,
        "connected": true,
        "vm_pu": 0.9985,
        "va_degree": 1.9596
      }
    },
    {
      "type": "Feature",
      "geometry": {
        "type": "Point",
        "coordinates": [
          124.0065977,
          10.46649795
        ]
      },
      "properties": {
        "name": "Compostela",
        "x": 124.0065977,
        "y": 10.46649795,
        "v_nom": 230,
        "voltages_kv": 230,
        "island": "Cebu",
        "bus_type": "substation",
        "p_mw": 39.2,
        "q_mvar": 11.8,
        "is_slack": false,
        "load_count": 3,
        "gen_capacity_mw": 0.0,
        "gen_mw": 0.0,
        "gen_carriers": null,
        "primary_carrier": null,
        "connected": true,
        "vm_pu": 1.0391,
        "va_degree": 0.0432
      }
    },
    {
      "type": "Feature",
      "geometry": {
        "type": "Point",
        "coordinates": [
          124.066134,
          11.252493
        ]
      },
      "properties": {
        "name": "Daanbantayan",
        "x": 124.066134,
        "y": 11.252493,
        "v_nom": 230,
        "voltages_kv": 230,
        "island": "Cebu",
        "bus_type": "substation",
        "p_mw": 27.4,
        "q_mvar": 8.2,
        "is_slack": false,
        "load_count": 2,
        "gen_capacity_mw": 0.0,
        "gen_mw": 0.0,
        "gen_carriers": null,
        "primary_carrier": null,
        "connected": true,
        "vm_pu": 1.042,
        "va_degree": -0.0043
      }
    },
    {
      "type": "Feature",
      "geometry": {
        "type": "Point",
        "coordinates": [
          123.641023,
          10.387158
        ]
      },
      "properties": {
        "name": "Daan Lungsod",
        "x": 123.641023,
        "y": 10.387158,
        "v_nom": 230,
        "voltages_kv": 230,
        "island": "Cebu",
        "bus_type": "substation",
        "p_mw": 25.3,
        "q_mvar": 7.6,
        "is_slack": false,
        "load_count": 1,
        "gen_capacity_mw": 249.7,
        "gen_mw": 174.79,
        "gen_carriers": "Coal",
        "primary_carrier": "Coal",
        "connected": true,
        "vm_pu": 1.02,
        "va_degree": 4.9711
      }
    },
    {
      "type": "Feature",
      "geometry": {
        "type": "Point",
        "coordinates": [
          123.4405471,
          10.03617433
        ]
      },
      "properties": {
        "name": "Dumanjug",
        "x": 123.4405471,
        "y": 10.03617433,
        "v_nom": 230,
        "voltages_kv": 230,
        "island": "Cebu",
        "bus_type": "substation",
        "p_mw": 0.0,
        "q_mvar": 0.0,
        "is_slack": false,
        "load_count": 0,
        "gen_capacity_mw": 0.0,
        "gen_mw": 0.0,
        "gen_carriers": null,
        "primary_carrier": null,
        "connected": true,
        "vm_pu": 1.0247,
        "va_degree": 3.9044
      }
    },
    {
      "type": "Feature",
      "geometry": {
        "type": "Point",
        "coordinates": [
          123.7626806,
          10.21827094
        ]
      },
      "properties": {
        "name": "KSPC",
        "x": 123.7626806,
        "y": 10.21827094,
        "v_nom": 230,
        "voltages_kv": 230,
        "island": "Cebu",
        "bus_type": "generator",
        "p_mw": 15.7,
        "q_mvar": 4.7,
        "is_slack": false,
        "load_count": 2,
        "gen_capacity_mw": 221.0,
        "gen_mw": 154.7,
        "gen_carriers": "Coal",
        "primary_carrier": "Coal",
        "connected": true,
        "vm_pu": 1.02,
        "va_degree": 5.8261
      }
    },
    {
      "type": "Feature",
      "geometry": {
        "type": "Point",
        "coordinates": [
          123.967921,
          10.323788
        ]
      },
      "properties": {
        "name": "Lapu-Lapu (Pusok)",
        "x": 123.967921,
        "y": 10.323788,
        "v_nom": 138,
        "voltages_kv": 138,
        "island": "Cebu",
        "bus_type": "substation",
        "p_mw": 122.3,
        "q_mvar": 36.7,
        "is_slack": false,
        "load_count": 2,
        "gen_capacity_mw": 45.5,
        "gen_mw": 6.82,
        "gen_carriers": "Diesel",
        "primary_carrier": "Diesel",
        "connected": true,
        "vm_pu": 0.9633,
        "va_degree": -0.2808
      }
    },
    {
      "type": "Feature",
      "geometry": {
        "type": "Point",
        "coordinates": [
          123.665698,
          10.3457421
        ]
      },
      "properties": {
        "name": "Magdugo",
        "x": 123.665698,
        "y": 10.3457421,
        "v_nom": 230,
        "voltages_kv": 230,
        "island": "Cebu",
        "bus_type": "substation",
        "p_mw": 0.0,
        "q_mvar": 0.0,
        "is_slack": false,
        "load_count": 0,
        "gen_capacity_mw": 0.0,
        "gen_mw": 0.0,
        "gen_carriers": null,
        "primary_carrier": null,
        "connected": true,
        "vm_pu": 1.0273,
        "va_degree": 4.5082
      }
    },
    {
      "type": "Feature",
      "geometry": {
        "type": "Point",
        "coordinates": [
          123.963596,
          10.32946
        ]
      },
      "properties": {
        "name": "Mandaue",
        "x": 123.963596,
        "y": 10.32946,
        "v_nom": 138,
        "voltages_kv": 138,
        "island": "Cebu",
        "bus_type": "substation",
        "p_mw": 94.1,
        "q_mvar": 28.2,
        "is_slack": false,
        "load_count": 5,
        "gen_capacity_mw": 0.0,
        "gen_mw": 0.0,
        "gen_carriers": null,
        "primary_carrier": null,
        "connected": true,
        "vm_pu": 0.964,
        "va_degree": -0.2484
      }
    },
    {
      "type": "Feature",
      "geometry": {
        "type": "Point",
        "coordinates": [
          123.758582,
          10.223256
        ]
      },
      "properties": {
        "name": "Naga (Visayas)",
        "x": 123.758582,
        "y": 10.223256,
        "v_nom": 138,
        "voltages_kv": 138,
        "island": "Cebu",
        "bus_type": "substation",
        "p_mw": 0.1,
        "q_mvar": 0.0,
        "is_slack": false,
        "load_count": 4,
        "gen_capacity_mw": 44.6,
        "gen_mw": 6.69,
        "gen_carriers": "Diesel",
        "primary_carrier": "Diesel",
        "connected": true,
        "vm_pu": 0.9986,
        "va_degree": 2.0827
      }
    },
    {
      "type": "Feature",
      "geometry": {
        "type": "Point",
        "coordinates": [
          123.855494,
          10.287685
        ]
      },
      "properties": {
        "name": "Quiot",
        "x": 123.855494,
        "y": 10.287685,
        "v_nom": 138,
        "voltages_kv": 138,
        "island": "Cebu",
        "bus_type": "substation",
        "p_mw": 89.7,
        "q_mvar": 26.9,
        "is_slack": false,
        "load_count": 1,
        "gen_capacity_mw": 65.0,
        "gen_mw": 9.75,
        "gen_carriers": "Diesel",
        "primary_carrier": "Diesel",
        "connected": true,
        "vm_pu": 0.9854,
        "va_degree": 0.7568
      }
    },
    {
      "type": "Feature",
      "geometry": {
        "type": "Point",
        "coordinates": [
          123.308399,
          9.551115
        ]
      },
      "properties": {
        "name": "Samboan",
        "x": 123.308399,
        "y": 9.551115,
        "v_nom": 138,
        "voltages_kv": 138,
        "island": "Cebu",
        "bus_type": "substation",
        "p_mw": 3.3,
        "q_mvar": 1.0,
        "is_slack": false,
        "load_count": 2,
        "gen_capacity_mw": 0.0,
        "gen_mw": 0.0,
        "gen_carriers": null,
        "primary_carrier": null,
        "connected": true,
        "vm_pu": 1.0212,
        "va_degree": 5.6766
      }
    },
    {
      "type": "Feature",
      "geometry": {
        "type": "Point",
        "coordinates": [
          123.602486,
          10.350191
        ]
      },
      "properties": {
        "name": "Therma Visayas",
        "x": 123.602486,
        "y": 10.350191,
        "v_nom": 138,
        "voltages_kv": 138,
        "island": "Cebu",
        "bus_type": "generator",
        "p_mw": 28.4,
        "q_mvar": 8.5,
        "is_slack": false,
        "load_count": 2,
        "gen_capacity_mw": 338.0,
        "gen_mw": 236.6,
        "gen_carriers": "Coal",
        "primary_carrier": "Coal",
        "connected": true,
        "vm_pu": 1.02,
        "va_degree": 2.4169
      }
    },
    {
      "type": "Feature",
      "geometry": {
        "type": "Point",
        "coordinates": [
          123.706851,
          10.341147
        ]
      },
      "properties": {
        "name": "Toledo BESS",
        "x": 123.706851,
        "y": 10.341147,
        "v_nom": 138,
        "voltages_kv": 138,
        "island": "Cebu",
        "bus_type": "bess",
        "p_mw": 0.0,
        "q_mvar": 0.0,
        "is_slack": false,
        "load_count": 0,
        "gen_capacity_mw": 23.7,
        "gen_mw": 11.85,
        "gen_carriers": "BESS",
        "primary_carrier": "BESS",
        "connected": true,
        "vm_pu": 1.0099,
        "va_degree": 3.8049
      }
    },
    {
      "type": "Feature",
      "geometry": {
        "type": "Point",
        "coordinates": [
          123.706851,
          10.341147
        ]
      },
      "properties": {
        "name": "Toledo",
        "x": 123.706851,
        "y": 10.341147,
        "v_nom": 138,
        "voltages_kv": 138,
        "island": "Cebu",
        "bus_type": "substation",
        "p_mw": 72.7,
        "q_mvar": 21.8,
        "is_slack": false,
        "load_count": 4,
        "gen_capacity_mw": 123.6,
        "gen_mw": 64.52,
        "gen_carriers": "Coal,Diesel",
        "primary_carrier": "Coal",
        "connected": true,
        "vm_pu": 1.0047,
        "va_degree": 2.2694
      }
    },
    {
      "type": "Feature",
      "geometry": {
        "type": "Point",
        "coordinates": [
          123.2248121,
          9.457756504
        ]
      },
      "properties": {
        "name": "Amlan",
        "x": 123.2248121,
        "y": 9.457756504,
        "v_nom": 138,
        "voltages_kv": 138,
        "island": "Negros",
        "bus_type": "substation",
        "p_mw": 63.1,
        "q_mvar": 18.9,
        "is_slack": false,
        "load_count": 3,
        "gen_capacity_mw": 27.4,
        "gen_mw": 9.52,
        "gen_carriers": "Biomass,ROR,Solar",
        "primary_carrier": "Solar",
        "connected": true,
        "vm_pu": 1.0216,
        "va_degree": 6.0892
      }
    },
    {
      "type": "Feature",
      "geometry": {
        "type": "Point",
        "coordinates": [
          122.989272,
          10.62946
        ]
      },
      "properties": {
        "name": "Bacolod",
        "x": 122.989272,
        "y": 10.62946,
        "v_nom": 230,
        "voltages_kv": 230,
        "island": "Negros",
        "bus_type": "substation",
        "p_mw": 139.9,
        "q_mvar": 42.0,
        "is_slack": false,
        "load_count": 8,
        "gen_capacity_mw": 172.1,
        "gen_mw": 66.43,
        "gen_carriers": "Biomass,Diesel,Solar",
        "primary_carrier": "Biomass",
        "connected": true,
        "vm_pu": 1.0255,
        "va_degree": 4.7301
      }
    },
    {
      "type": "Feature",
      "geometry": {
        "type": "Point",
        "coordinates": [
          123.2882465,
          10.93482221
        ]
      },
      "properties": {
        "name": "Cadiz",
        "x": 123.2882465,
        "y": 10.93482221,
        "v_nom": 230,
        "voltages_kv": 230,
        "island": "Negros",
        "bus_type": "substation",
        "p_mw": 30.3,
        "q_mvar": 9.1,
        "is_slack": false,
        "load_count": 5,
        "gen_capacity_mw": 84.4,
        "gen_mw": 31.44,
        "gen_carriers": "Biomass,Solar",
        "primary_carrier": "Biomass",
        "connected": true,
        "vm_pu": 1.031,
        "va_degree": 4.6163
      }
    },
    {
      "type": "Feature",
      "geometry": {
        "type": "Point",
        "coordinates": [
          123.4606946,
          10.55356153
        ]
      },
      "properties": {
        "name": "Calatrava",
        "x": 123.4606946,
        "y": 10.55356153,
        "v_nom": 230,
        "voltages_kv": 230,
        "island": "Negros",
        "bus_type": "substation",
        "p_mw": 0.1,
        "q_mvar": 0.0,
        "is_slack": false,
        "load_count": 2,
        "gen_capacity_mw": 0.0,
        "gen_mw": 0.0,
        "gen_carriers": null,
        "primary_carrier": null,
        "connected": true,
        "vm_pu": 1.0319,
        "va_degree": 4.4969
      }
    },
    {
      "type": "Feature",
      "geometry": {
        "type": "Point",
        "coordinates": [
          122.964067,
          10.895112
        ]
      },
      "properties": {
        "name": "E.B. Magalona",
        "x": 122.964067,
        "y": 10.895112,
        "v_nom": 230,
        "voltages_kv": 230,
        "island": "Negros",
        "bus_type": "substation",
        "p_mw": 0.0,
        "q_mvar": 0.0,
        "is_slack": false,
        "load_count": 0,
        "gen_capacity_mw": 0.0,
        "gen_mw": 0.0,
        "gen_carriers": null,
        "primary_carrier": null,
        "connected": true,
        "vm_pu": 1.0288,
        "va_degree": 4.6921
      }
    },
    {
      "type": "Feature",
      "geometry": {
        "type": "Point",
        "coordinates": [
          123.292,
          10.92241
        ]
      },
      "properties": {
        "name": "Helios Solar",
        "x": 123.292,
        "y": 10.92241,
        "v_nom": 230,
        "voltages_kv": 230,
        "island": "Negros",
        "bus_type": "generator",
        "p_mw": 0.0,
        "q_mvar": 0.0,
        "is_slack": false,
        "load_count": 1,
        "gen_capacity_mw": 132.5,
        "gen_mw": 23.85,
        "gen_carriers": "Solar",
        "primary_carrier": "Solar",
        "connected": true,
        "vm_pu": 1.0311,
        "va_degree": 4.623
      }
    },
    {
      "type": "Feature",
      "geometry": {
        "type": "Point",
        "coordinates": [
          122.84776,
          10.0186
        ]
      },
      "properties": {
        "name": "Kabankalan",
        "x": 122.84776,
        "y": 10.0186,
        "v_nom": 138,
        "voltages_kv": 138,
        "island": "Negros",
        "bus_type": "substation",
        "p_mw": 30.4,
        "q_mvar": 9.1,
        "is_slack": false,
        "load_count": 3,
        "gen_capacity_mw": 30.0,
        "gen_mw": 16.5,
        "gen_carriers": "Biomass",
        "primary_carrier": "Biomass",
        "connected": true,
        "vm_pu": 1.023,
        "va_degree": 5.6996
      }
    },
    {
      "type": "Feature",
      "geometry": {
        "type": "Point",
        "coordinates": [
          122.8516924,
          10.01997881
        ]
      },
      "properties": {
        "name": "Kabankalan BESS",
        "x": 122.8516924,
        "y": 10.01997881,
        "v_nom": 138,
        "voltages_kv": 138,
        "island": "Negros",
        "bus_type": "bess",
        "p_mw": 0.0,
        "q_mvar": 0.0,
        "is_slack": false,
        "load_count": 1,
        "gen_capacity_mw": 34.7,
        "gen_mw": 17.35,
        "gen_carriers": "BESS",
        "primary_carrier": "BESS",
        "connected": true,
        "vm_pu": 1.023,
        "va_degree": 5.703
      }
    },
    {
      "type": "Feature",
      "geometry": {
        "type": "Point",
        "coordinates": [
          122.92435,
          9.72876
        ]
      },
      "properties": {
        "name": "Mabinay",
        "x": 122.92435,
        "y": 9.72876,
        "v_nom": 138,
        "voltages_kv": 138,
        "island": "Negros",
        "bus_type": "substation",
        "p_mw": 7.2,
        "q_mvar": 2.2,
        "is_slack": false,
        "load_count": 3,
        "gen_capacity_mw": 20.0,
        "gen_mw": 11.0,
        "gen_carriers": "Biomass",
        "primary_carrier": "Biomass",
        "connected": true,
        "vm_pu": 1.0229,
        "va_degree": 5.8718
      }
    },
    {
      "type": "Feature",
      "geometry": {
        "type": "Point",
        "coordinates": [
          123.1774662,
          9.296893436
        ]
      },
      "properties": {
        "name": "Palinpinon 1",
        "x": 123.1774662,
        "y": 9.296893436,
        "v_nom": 138,
        "voltages_kv": 138,
        "island": "Negros",
        "bus_type": "generator",
        "p_mw": 4.9,
        "q_mvar": 1.5,
        "is_slack": false,
        "load_count": 1,
        "gen_capacity_mw": 110.5,
        "gen_mw": 93.92,
        "gen_carriers": "Geothermal",
        "primary_carrier": "Geothermal",
        "connected": true,
        "vm_pu": 1.0267,
        "va_degree": 6.4968
      }
    },
    {
      "type": "Feature",
      "geometry": {
        "type": "Point",
        "coordinates": [
          123.1568919,
          9.280816763
        ]
      },
      "properties": {
        "name": "Palinpinon 2",
        "x": 123.1568919,
        "y": 9.280816763,
        "v_nom": 138,
        "voltages_kv": 138,
        "island": "Negros",
        "bus_type": "generator",
        "p_mw": 5.9,
        "q_mvar": 1.8,
        "is_slack": false,
        "load_count": 1,
        "gen_capacity_mw": 128.9,
        "gen_mw": 109.56,
        "gen_carriers": "Geothermal",
        "primary_carrier": "Geothermal",
        "connected": true,
        "vm_pu": 1.02,
        "va_degree": 6.9549
      }
    },
    {
      "type": "Feature",
      "geometry": {
        "type": "Point",
        "coordinates": [
          123.43306,
          10.51522
        ]
      },
      "properties": {
        "name": "San Carlos",
        "x": 123.43306,
        "y": 10.51522,
        "v_nom": 138,
        "voltages_kv": 138,
        "island": "Negros",
        "bus_type": "substation",
        "p_mw": 0.5,
        "q_mvar": 0.1,
        "is_slack": false,
        "load_count": 1,
        "gen_capacity_mw": 105.6,
        "gen_mw": 26.22,
        "gen_carriers": "Biomass,Solar",
        "primary_carrier": "Solar",
        "connected": true,
        "vm_pu": 1.0331,
        "va_degree": 5.2756
      }
    },
    {
      "type": "Feature",
      "geometry": {
        "type": "Point",
        "coordinates": [
          123.90328,
          9.68029
        ]
      },
      "properties": {
        "name": "Corella",
        "x": 123.90328,
        "y": 9.68029,
        "v_nom": 138,
        "voltages_kv": 138,
        "island": "Bohol",
        "bus_type": "substation",
        "p_mw": 49.8,
        "q_mvar": 14.9,
        "is_slack": false,
        "load_count": 3,
        "gen_capacity_mw": 26.1,
        "gen_mw": 5.9,
        "gen_carriers": "Diesel,ROR",
        "primary_carrier": "Diesel",
        "connected": true,
        "vm_pu": 1.0139,
        "va_degree": -0.7356
      }
    },
    {
      "type": "Feature",
      "geometry": {
        "type": "Point",
        "coordinates": [
          124.5195759,
          10.06090051
        ]
      },
      "properties": {
        "name": "Tapal",
        "x": 124.5195759,
        "y": 10.06090051,
        "v_nom": 138,
        "voltages_kv": 138,
        "island": "Bohol",
        "bus_type": "substation",
        "p_mw": 0.0,
        "q_mvar": 0.0,
        "is_slack": false,
        "load_count": 1,
        "gen_capacity_mw": 29.0,
        "gen_mw": 4.35,
        "gen_carriers": "Diesel",
        "primary_carrier": "Diesel",
        "connected": true,
        "vm_pu": 1.0197,
        "va_degree": -1.9753
      }
    },
    {
      "type": "Feature",
      "geometry": {
        "type": "Point",
        "coordinates": [
          124.5114284,
          10.02667044
        ]
      },
      "properties": {
        "name": "Ubay",
        "x": 124.5114284,
        "y": 10.02667044,
        "v_nom": 138,
        "voltages_kv": 138,
        "island": "Bohol",
        "bus_type": "substation",
        "p_mw": 25.9,
        "q_mvar": 7.8,
        "is_slack": false,
        "load_count": 4,
        "gen_capacity_mw": 23.3,
        "gen_mw": 11.65,
        "gen_carriers": "BESS",
        "primary_carrier": "BESS",
        "connected": true,
        "vm_pu": 1.0196,
        "va_degree": -1.9988
      }
    },
    {
      "type": "Feature",
      "geometry": {
        "type": "Point",
        "coordinates": [
          123.836,
          9.748
        ]
      },
      "properties": {
        "name": "Maribojoc",
        "x": 123.836,
        "y": 9.748,
        "v_nom": 230,
        "voltages_kv": 230,
        "island": "Bohol",
        "bus_type": "substation",
        "p_mw": 0.0,
        "q_mvar": 0.0,
        "is_slack": false,
        "load_count": 0,
        "gen_capacity_mw": 0.0,
        "gen_mw": 0.0,
        "gen_carriers": null,
        "primary_carrier": null,
        "connected": true,
        "vm_pu": 1.0154,
        "va_degree": 1.9215
      }
    },
    {
      "type": "Feature",
      "geometry": {
        "type": "Point",
        "coordinates": [
          122.5828264,
          10.72873409
        ]
      },
      "properties": {
        "name": "Bantap",
        "x": 122.5828264,
        "y": 10.72873409,
        "v_nom": 69,
        "voltages_kv": 69,
        "island": "Panay",
        "bus_type": "substation",
        "p_mw": 16.1,
        "q_mvar": 4.8,
        "is_slack": false,
        "load_count": 1,
        "gen_capacity_mw": 0.0,
        "gen_mw": 0.0,
        "gen_carriers": null,
        "primary_carrier": null,
        "connected": true,
        "vm_pu": 1.0037,
        "va_degree": 4.9497
      }
    },
    {
      "type": "Feature",
      "geometry": {
        "type": "Point",
        "coordinates": [
          122.870264,
          11.03283455
        ]
      },
      "properties": {
        "name": "Barotac Viejo",
        "x": 122.870264,
        "y": 11.03283455,
        "v_nom": 138,
        "voltages_kv": 138,
        "island": "Panay",
        "bus_type": "substation",
        "p_mw": 0.0,
        "q_mvar": 0.0,
        "is_slack": false,
        "load_count": 2,
        "gen_capacity_mw": 0.0,
        "gen_mw": 0.0,
        "gen_carriers": null,
        "primary_carrier": null,
        "connected": true,
        "vm_pu": 1.0271,
        "va_degree": 5.8821
      }
    },
    {
      "type": "Feature",
      "geometry": {
        "type": "Point",
        "coordinates": [
          122.6592157,
          10.71758251
        ]
      },
      "properties": {
        "name": "Buenavista (Guimaras)",
        "x": 122.6592157,
        "y": 10.71758251,
        "v_nom": 138,
        "voltages_kv": 138,
        "island": "Guimaras",
        "bus_type": "substation",
        "p_mw": 8.0,
        "q_mvar": 2.4,
        "is_slack": false,
        "load_count": 3,
        "gen_capacity_mw": 54.0,
        "gen_mw": 15.12,
        "gen_carriers": "Wind",
        "primary_carrier": "Wind",
        "connected": true,
        "vm_pu": 1.0029,
        "va_degree": 5.3735
      }
    },
    {
      "type": "Feature",
      "geometry": {
        "type": "Point",
        "coordinates": [
          123.12058,
          11.18827
        ]
      },
      "properties": {
        "name": "Concepcion",
        "x": 123.12058,
        "y": 11.18827,
        "v_nom": 138,
        "voltages_kv": 138,
        "island": "Panay",
        "bus_type": "substation",
        "p_mw": 14.4,
        "q_mvar": 4.3,
        "is_slack": false,
        "load_count": 2,
        "gen_capacity_mw": 135.0,
        "gen_mw": 94.5,
        "gen_carriers": "Coal",
        "primary_carrier": "Coal",
        "connected": true,
        "vm_pu": 1.0408,
        "va_degree": 7.039
      }
    },
    {
      "type": "Feature",
      "geometry": {
        "type": "Point",
        "coordinates": [
          122.6308302,
          11.02453374
        ]
      },
      "properties": {
        "name": "Dingle",
        "x": 122.6308302,
        "y": 11.02453374,
        "v_nom": 138,
        "voltages_kv": 138,
        "island": "Panay",
        "bus_type": "substation",
        "p_mw": 39.1,
        "q_mvar": 11.7,
        "is_slack": false,
        "load_count": 8,
        "gen_capacity_mw": 81.0,
        "gen_mw": 18.55,
        "gen_carriers": "Biomass,Diesel",
        "primary_carrier": "Diesel",
        "connected": true,
        "vm_pu": 1.0121,
        "va_degree": 5.5908
      }
    },
    {
      "type": "Feature",
      "geometry": {
        "type": "Point",
        "coordinates": [
          122.59255,
          10.72631
        ]
      },
      "properties": {
        "name": "Iloilo (PEDC)",
        "x": 122.59255,
        "y": 10.72631,
        "v_nom": 138,
        "voltages_kv": 138,
        "island": "Panay",
        "bus_type": "substation",
        "p_mw": 99.0,
        "q_mvar": 29.7,
        "is_slack": false,
        "load_count": 5,
        "gen_capacity_mw": 317.4,
        "gen_mw": 222.18,
        "gen_carriers": "Coal",
        "primary_carrier": "Coal",
        "connected": true,
        "vm_pu": 1.02,
        "va_degree": 6.299
      }
    },
    {
      "type": "Feature",
      "geometry": {
        "type": "Point",
        "coordinates": [
          122.09507,
          11.81427
        ]
      },
      "properties": {
        "name": "Nabas",
        "x": 122.09507,
        "y": 11.81427,
        "v_nom": 138,
        "voltages_kv": 138,
        "island": "Panay",
        "bus_type": "substation",
        "p_mw": 57.7,
        "q_mvar": 17.3,
        "is_slack": false,
        "load_count": 4,
        "gen_capacity_mw": 74.1,
        "gen_mw": 21.18,
        "gen_carriers": "Diesel,ROR,Wind",
        "primary_carrier": "Wind",
        "connected": true,
        "vm_pu": 0.9817,
        "va_degree": 4.0833
      }
    },
    {
      "type": "Feature",
      "geometry": {
        "type": "Point",
        "coordinates": [
          122.75755,
          11.46919
        ]
      },
      "properties": {
        "name": "Panitan",
        "x": 122.75755,
        "y": 11.46919,
        "v_nom": 138,
        "voltages_kv": 138,
        "island": "Panay",
        "bus_type": "substation",
        "p_mw": 35.0,
        "q_mvar": 10.5,
        "is_slack": false,
        "load_count": 3,
        "gen_capacity_mw": 0.0,
        "gen_mw": 0.0,
        "gen_carriers": null,
        "primary_carrier": null,
        "connected": true,
        "vm_pu": 0.9961,
        "va_degree": 4.7091
      }
    },
    {
      "type": "Feature",
      "geometry": {
        "type": "Point",
        "coordinates": [
          122.5362605,
          10.99817987
        ]
      },
      "properties": {
        "name": "San Jose",
        "x": 122.5362605,
        "y": 10.99817987,
        "v_nom": 138,
        "voltages_kv": 138,
        "island": "Panay",
        "bus_type": "substation",
        "p_mw": 13.1,
        "q_mvar": 3.9,
        "is_slack": false,
        "load_count": 3,
        "gen_capacity_mw": 5.7,
        "gen_mw": 1.03,
        "gen_carriers": "Solar",
        "primary_carrier": "Solar",
        "connected": true,
        "vm_pu": 1.0123,
        "va_degree": 5.8224
      }
    },
    {
      "type": "Feature",
      "geometry": {
        "type": "Point",
        "coordinates": [
          122.5588103,
          10.83480342
        ]
      },
      "properties": {
        "name": "Sta. Barbara",
        "x": 122.5588103,
        "y": 10.83480342,
        "v_nom": 138,
        "voltages_kv": 138,
        "island": "Panay",
        "bus_type": "substation",
        "p_mw": 59.6,
        "q_mvar": 17.9,
        "is_slack": false,
        "load_count": 5,
        "gen_capacity_mw": 32.1,
        "gen_mw": 6.43,
        "gen_carriers": "Diesel,ROR",
        "primary_carrier": "Diesel",
        "connected": true,
        "vm_pu": 1.0143,
        "va_degree": 5.9125
      }
    }
  ]
}